0 DELTA 1 DEB
1 21467U 75052FB  13283.20696669  .00000093  00000-0  22085-3 0  7079
2 21467 099.9069 139.9539 0025650 202.6670 281.5691 13.48672571103543
0 DELTA 1 DEB
1 21467U 75052FB  13287.56948285  .00000123  00000-0  26933-3 0  7098
2 21467 099.9058 144.2817 0025755 191.8251 222.6763 13.48673918104137
0 DELTA 1 DEB
1 21467U 75052FB  13289.57239209  .00000142  00000-0  29906-3 0  7106
2 21467 099.9054 146.2685 0025780 186.7689 227.3910 13.48675211104408
0 DELTA 1 DEB
1 21467U 75052FB  13291.57601924  .00000147  00000-0  30745-3 0  7115
2 21467 099.9051 148.2560 0025830 181.7152 235.5927 13.48675903104671
0 DELTA 1 DEB
1 21467U 75052FB  13293.57843558  .00000160  00000-0  32760-3 0  7123
2 21467 099.9049 150.2420 0025910 176.7112 237.8751 13.48676675104942
0 DELTA 1 DEB
1 21467U 75052FB  13295.58189850  .00000164  00000-0  33501-3 0  7133
2 21467 099.9049 152.2290 0025964 171.7698 245.1801 13.48677568105213
